OBJECT_NAME,OBJECT_ID,EPOCH,MEAN_MOTION,ECCENTRICITY,INCLINATION,RA_OF_ASC_NODE,ARG_OF_PERICENTER,MEAN_ANOMALY,EPHEMERIS_TYPE,CLASSIFICATION_TYPE,NORAD_CAT_ID,ELEMENT_SET_NO,REV_AT_EPOCH,BSTAR,MEAN_MOTION_DOT,MEAN_MOTION_DDOT
GLOBALSTAR M069,2007-020C,2026-07-17T06:32:59.048160,12.23472257,.00015988,52.0009,166.9710,214.9087,283.3106,0,U,31573,999,88248,-.10149402E-3,-.104E-5,0
GLOBALSTAR M072,2007-020D,2026-07-17T06:40:01.293600,11.91658839,.00016473,51.9950,20.1360,39.5761,150.9888,0,U,31574,999,87856,.65281965E-4,-.79E-6,0
GLOBALSTAR M066,2007-048C,2026-07-16T13:39:55.327968,12.30389593,.00055863,51.9609,333.5655,104.4817,336.2278,0,U,32265,999,86384,.40679134E-3,-.46E-6,0
GLOBALSTAR M079,2010-054A,2026-07-17T06:00:49.083840,12.62266424,.00011292,52.0056,17.1527,81.1766,90.7351,0,U,37188,999,72634,-.30172527E-4,-.109E-5,0
GLOBALSTAR M074,2010-054B,2026-07-16T16:51:51.998688,12.62262050,.00008662,52.0033,18.0813,94.8333,346.1544,0,U,37189,999,72688,-.9277507E-5,-.105E-5,0
GLOBALSTAR M076,2010-054C,2026-07-16T21:44:36.356640,12.62262469,.00011007,52.0046,17.6683,94.5452,70.5836,0,U,37190,999,72662,.85622977E-4,-.88E-6,0
GLOBALSTAR M077,2010-054D,2026-07-17T04:44:48.016608,11.67547328,.00022269,51.9959,103.1240,228.9838,299.4155,0,U,37191,999,72464,-.4661651E-3,-.103E-5,0
GLOBALSTAR M075,2010-054E,2026-07-17T01:51:14.211648,12.62267872,.00007741,51.9955,59.1841,67.3811,96.9658,0,U,37192,999,72571,.73277977E-4,-.91E-6,0
GLOBALSTAR M073,2010-054F,2026-07-16T14:01:18.931296,12.62266918,.00010493,52.0082,334.8088,98.2466,343.0539,0,U,37193,999,72764,.14330601E-4,-.101E-5,0
GLOBALSTAR M083,2011-033A,2026-07-17T05:14:21.769728,12.62264256,.00007272,51.9862,281.0676,108.7385,276.5000,0,U,37739,999,69674,.16114871E-3,-.75E-6,0
GLOBALSTAR M088,2011-033B,2026-07-17T06:31:59.243808,12.62269509,.0000078,52.0189,187.4019,61.0274,328.0142,0,U,37740,999,69229,-.62678982E-4,-.115E-5,0
GLOBALSTAR M091,2011-033C,2026-07-17T07:33:26.789760,12.62264236,.00004806,51.9982,150.1928,28.5497,135.1036,0,U,37741,999,69308,-.25476195E-4,-.108E-5,0
GLOBALSTAR M085,2011-033D,2026-07-17T05:21:07.627680,12.62264379,.00008245,52.0125,101.7911,44.3932,121.5115,0,U,37742,999,69358,.11122335E-3,-.84E-6,0
GLOBALSTAR M081,2011-033E,2026-07-17T06:02:20.762016,12.62265286,.00007138,51.9956,104.1057,57.4683,118.4316,0,U,37743,999,69373,.63087191E-4,-.92E-6,0
GLOBALSTAR M089,2011-033F,2026-07-17T01:13:15.350304,12.62267575,.00007022,51.9937,58.8701,91.0766,73.2268,0,U,37744,999,69455,.62279806E-4,-.93E-6,0
GLOBALSTAR M084,2011-080A,2026-07-17T06:27:44.831232,12.62263578,.00007737,52.0018,285.7040,133.3605,243.6392,0,U,38040,999,67256,.13373362E-3,-.8E-6,0
GLOBALSTAR M080,2011-080B,2026-07-17T05:47:09.668832,12.62257515,.00002832,52.0067,287.5186,79.0400,299.5857,0,U,38041,999,67268,.13684609E-3,-.79E-6,0
GLOBALSTAR M082,2011-080C,2026-07-17T02:21:02.912832,12.62264344,.00001984,52.0060,243.4583,78.9877,298.8883,0,U,38042,999,67337,.11450657E-3,-.83E-6,0
GLOBALSTAR M092,2011-080D,2026-07-17T07:24:01.740672,12.62267818,.00007599,52.0105,333.2149,106.4039,267.4253,0,U,38043,999,67185,.86884832E-4,-.88E-6,0
GLOBALSTAR M090,2011-080E,2026-07-17T03:04:27.518592,12.62269629,.00004137,52.0103,237.3317,89.1139,304.6303,0,U,38044,999,67349,.13632176E-3,-.79E-6,0
GLOBALSTAR M086,2011-080F,2026-07-17T01:35:08.478240,12.62287855,.00014794,51.9875,237.4002,114.4095,261.1789,0,U,38045,999,67343,.54638653E-4,-.94E-6,0
GLOBALSTAR M097,2013-005A,2026-07-17T06:04:03.971136,12.62271324,.00004905,52.0028,151.8123,42.3785,317.7119,0,U,39072,999,62070,-.79912967E-4,-.118E-5,0
GLOBALSTAR M093,2013-005B,2026-07-17T05:25:32.126592,12.62266331,.00007042,52.0093,145.2523,47.7349,312.3577,0,U,39073,999,62065,-.11891783E-4,-.106E-5,0
GLOBALSTAR M094,2013-005C,2026-07-16T23:43:15.239712,12.62264163,.00010239,51.9971,60.0636,65.3700,294.7273,0,U,39074,999,62223,.65679093E-4,-.92E-6,0
GLOBALSTAR M096,2013-005D,2026-07-17T03:50:46.887360,12.62265725,.0000785,52.0072,108.3649,46.0016,314.0916,0,U,39075,999,62117,.91512848E-4,-.87E-6,0
GLOBALSTAR M078,2013-005E,2026-07-17T07:00:08.680896,12.62260136,.00008871,51.9845,191.9336,344.3933,15.6906,0,U,39076,999,61981,-.103733E-3,-.122E-5,0
GLOBALSTAR M095,2013-005F,2026-07-17T00:02:27.361248,12.62264118,.0000502,52.0053,190.4627,15.9814,344.1068,0,U,39077,999,61963,-.11568438E-3,-.124E-5,0
GLOBALSTAR M087,2022-064A,2026-07-17T07:57:25.531200,12.62269402,.00008965,52.0017,330.6804,86.9366,273.1604,0,U,52888,999,19494,.83134508E-4,-.89E-6,0
